ONEWEB-0333             
1 49199U 21083P   26051.20754452 -.00000115  00000+0 -35083-3 0  9999
2 49199  87.9031 343.5018 0001774  75.8707 284.2619 13.13467955215553
ONEWEB-0334             
1 49200U 21083Q   26051.17404639  .00000118  00000+0  25761-3 0  9990
2 49200  87.9189 297.8147 0001259 118.2250 241.9011 13.20770982221342
ONEWEB-0335             
1 49201U 21083R   26051.20246603 -.00000011  00000+0 -65216-4 0  9994
2 49201  87.9038 343.4952 0001880  72.5401 287.5933 13.13470953215561
ONEWEB-0336             
1 49202U 21083S   26051.17369041  .00000245  00000+0  63574-3 0  9994
2 49202  87.9037 343.4975 0002089  69.4930 290.6423 13.13471850215555
ONEWEB-0337             
1 49203U 21083T   26051.25990053  .00000408  00000+0  10832-2 0  9996
2 49203  87.9028 343.4913 0001984  77.2385 282.8965 13.13470141215569
ONEWEB-0338             
1 49204U 21083U   26051.22455207  .00000036  00000+0  55614-4 0  9997
2 49204  87.9192 297.8086 0001438  91.1047 269.0251 13.20774313221376
ONEWEB-0339             
1 49205U 21083V   26051.19232419  .00000231  00000+0  59689-3 0  9994
2 49205  87.9043 343.4902 0001734  87.9258 272.2070 13.13470942215532
ONEWEB-0340             
1 49206U 21083W   26051.28432672  .00000068  00000+0  13866-3 0  9993
2 49206  87.9239 358.6623 0001892  78.7127 281.4217 13.18685108214560
ONEWEB-0341             
1 49207U 21083X   26051.21505396  .00000023  00000+0  26482-4 0  9991
2 49207  87.9242 358.6858 0002334  83.3523 276.7875 13.18684854214574
ONEWEB-0342             
1 49208U 21083Y   26051.15510622  .00000129  00000+0  28415-3 0  9997
2 49208  87.9200 297.7991 0001581  81.2974 278.8339 13.20771390221335
ONEWEB-0343             
1 49209U 21083Z   26051.22329547 -.00000088  00000+0 -25556-3 0  9999
2 49209  87.9243 358.6782 0002191  91.2357 268.9027 13.18684122214623
ONEWEB-0344             
1 49210U 21083AA  26051.18724117  .00000308  00000+0  80902-3 0  9997
2 49210  87.9029 343.5170 0002154  80.7368 279.4005 13.13468336215531
ONEWEB-0345             
1 49211U 21083AB  26051.25495817  .00000407  00000+0  10808-2 0  9995
2 49211  87.9039 343.4695 0002153  82.4255 277.7119 13.13471403215555
ONEWEB-0346             
1 49212U 21083AC  26051.21999048  .00000012  00000+0 -17859-5 0  9996
2 49212  87.9230 358.6884 0002087  60.4857 299.6483 13.18686354214562
ONEWEB-0348             
1 49213U 21083AD  26051.22139466  .00000063  00000+0  12297-3 0  9992
2 49213  87.9202 297.7891 0002055  70.4115 289.7240 13.20771320221375
ONEWEB-0350             
1 49214U 21083AE  26051.18808553  .00000386  00000+0  10216-2 0  9994
2 49214  87.9043 343.4817 0002125  77.8718 282.2649 13.13468701215578
ONEWEB-0351             
1 49215U 21083AF  26051.21495446  .00000064  00000+0  12452-3 0  9990
2 49215  87.9203 297.7882 0001850 109.7077 250.4256 13.20772111221330
