[{"OBJECT_NAME":"ONEWEB-0333","OBJECT_ID":"2021-083P","EPOCH":"2026-02-20T04:58:51.846528","MEAN_MOTION":13.13467955,"ECCENTRICITY":0.00017747,"INCLINATION":87.9031,"RA_OF_ASC_NODE":343.5018,"ARG_OF_PERICENTER":75.8707,"MEAN_ANOMALY":284.2619,"EPHEMERIS_TYPE":0,"CLASSIFICATION_TYPE":"U","NORAD_CAT_ID":49199,"ELEMENT_SET_NO":999,"REV_AT_EPOCH":21555,"BSTAR":-0.00035082933,"MEAN_MOTION_DOT":-1.15e-6,"MEAN_MOTION_DDOT":0},{"OBJECT_NAME":"ONEWEB-0334","OBJECT_ID":"2021-083Q","EPOCH":"2026-02-20T04:10:37.608096","MEAN_MOTION":13.20770982,"ECCENTRICITY":0.00012596,"INCLINATION":87.9189,"RA_OF_ASC_NODE":297.8147,"ARG_OF_PERICENTER":118.225,"MEAN_ANOMALY":241.9011,"EPHEMERIS_TYPE":0,"CLASSIFICATION_TYPE":"U","NORAD_CAT_ID":49200,"ELEMENT_SET_NO":999,"REV_AT_EPOCH":22134,"BSTAR":0.00025761026,"MEAN_MOTION_DOT":1.18e-6,"MEAN_MOTION_DDOT":0},{"OBJECT_NAME":"ONEWEB-0335","OBJECT_ID":"2021-083R","EPOCH":"2026-02-20T04:51:33.064992","MEAN_MOTION":13.13470953,"ECCENTRICITY":0.00018801,"INCLINATION":87.9038,"RA_OF_ASC_NODE":343.4952,"ARG_OF_PERICENTER":72.5401,"MEAN_ANOMALY":287.5933,"EPHEMERIS_TYPE":0,"CLASSIFICATION_TYPE":"U","NORAD_CAT_ID":49201,"ELEMENT_SET_NO":999,"REV_AT_EPOCH":21556,"BSTAR":-6.5216468e-5,"MEAN_MOTION_DOT":-1.1e-7,"MEAN_MOTION_DDOT":0},{"OBJECT_NAME":"ONEWEB-0336","OBJECT_ID":"2021-083S","EPOCH":"2026-02-20T04:10:06.851424","MEAN_MOTION":13.1347185,"ECCENTRICITY":0.00020891,"INCLINATION":87.9037,"RA_OF_ASC_NODE":343.4975,"ARG_OF_PERICENTER":69.493,"MEAN_ANOMALY":290.6423,"EPHEMERIS_TYPE":0,"CLASSIFICATION_TYPE":"U","NORAD_CAT_ID":49202,"ELEMENT_SET_NO":999,"REV_AT_EPOCH":21555,"BSTAR":0.00063573547,"MEAN_MOTION_DOT":2.45e-6,"MEAN_MOTION_DDOT":0},{"OBJECT_NAME":"ONEWEB-0337","OBJECT_ID":"2021-083T","EPOCH":"2026-02-20T06:14:15.405792","MEAN_MOTION":13.13470141,"ECCENTRICITY":0.00019842,"INCLINATION":87.9028,"RA_OF_ASC_NODE":343.4913,"ARG_OF_PERICENTER":77.2385,"MEAN_ANOMALY":282.8965,"EPHEMERIS_TYPE":0,"CLASSIFICATION_TYPE":"U","NORAD_CAT_ID":49203,"ELEMENT_SET_NO":999,"REV_AT_EPOCH":21556,"BSTAR":0.0010832206,"MEAN_MOTION_DOT":4.08e-6,"MEAN_MOTION_DDOT":0},{"OBJECT_NAME":"ONEWEB-0338","OBJECT_ID":"2021-083U","EPOCH":"2026-02-20T05:23:21.298848","MEAN_MOTION":13.20774313,"ECCENTRICITY":0.0001438,"INCLINATION":87.9192,"RA_OF_ASC_NODE":297.8086,"ARG_OF_PERICENTER":91.1047,"MEAN_ANOMALY":269.0251,"EPHEMERIS_TYPE":0,"CLASSIFICATION_TYPE":"U","NORAD_CAT_ID":49204,"ELEMENT_SET_NO":999,"REV_AT_EPOCH":22137,"BSTAR":5.5613612e-5,"MEAN_MOTION_DOT":3.6e-7,"MEAN_MOTION_DDOT":0},{"OBJECT_NAME":"ONEWEB-0339","OBJECT_ID":"2021-083V","EPOCH":"2026-02-20T04:36:56.810016","MEAN_MOTION":13.13470942,"ECCENTRICITY":0.00017343,"INCLINATION":87.9043,"RA_OF_ASC_NODE":343.4902,"ARG_OF_PERICENTER":87.9258,"MEAN_ANOMALY":272.207,"EPHEMERIS_TYPE":0,"CLASSIFICATION_TYPE":"U","NORAD_CAT_ID":49205,"ELEMENT_SET_NO":999,"REV_AT_EPOCH":21553,"BSTAR":0.00059688558,"MEAN_MOTION_DOT":2.31e-6,"MEAN_MOTION_DDOT":0},{"OBJECT_NAME":"ONEWEB-0340","OBJECT_ID":"2021-083W","EPOCH":"2026-02-20T06:49:25.828608","MEAN_MOTION":13.18685108,"ECCENTRICITY":0.0001892,"INCLINATION":87.9239,"RA_OF_ASC_NODE":358.6623,"ARG_OF_PERICENTER":78.7127,"MEAN_ANOMALY":281.4217,"EPHEMERIS_TYPE":0,"CLASSIFICATION_TYPE":"U","NORAD_CAT_ID":49206,"ELEMENT_SET_NO":999,"REV_AT_EPOCH":21456,"BSTAR":0.0001386625,"MEAN_MOTION_DOT":6.8e-7,"MEAN_MOTION_DDOT":0},{"OBJECT_NAME":"ONEWEB-0341","OBJECT_ID":"2021-083X","EPOCH":"2026-02-20T05:09:40.662144","MEAN_MOTION":13.18684854,"ECCENTRICITY":0.00023344,"INCLINATION":87.9242,"RA_OF_ASC_NODE":358.6858,"ARG_OF_PERICENTER":83.3523,"MEAN_ANOMALY":276.7875,"EPHEMERIS_TYPE":0,"CLASSIFICATION_TYPE":"U","NORAD_CAT_ID":49207,"ELEMENT_SET_NO":999,"REV_AT_EPOCH":21457,"BSTAR":2.6482203e-5,"MEAN_MOTION_DOT":2.3e-7,"MEAN_MOTION_DDOT":0},{"OBJECT_NAME":"ONEWEB-0342","OBJECT_ID":"2021-083Y","EPOCH":"2026-02-20T03:43:21.177408","MEAN_MOTION":13.2077139,"ECCENTRICITY":0.00015815,"INCLINATION":87.92,"RA_OF_ASC_NODE":297.7991,"ARG_OF_PERICENTER":81.2974,"MEAN_ANOMALY":278.8339,"EPHEMERIS_TYPE":0,"CLASSIFICATION_TYPE":"U","NORAD_CAT_ID":49208,"ELEMENT_SET_NO":999,"REV_AT_EPOCH":22133,"BSTAR":0.00028414949,"MEAN_MOTION_DOT":1.29e-6,"MEAN_MOTION_DDOT":0},{"OBJECT_NAME":"ONEWEB-0343","OBJECT_ID":"2021-083Z","EPOCH":"2026-02-20T05:21:32.728608","MEAN_MOTION":13.18684122,"ECCENTRICITY":0.00021913,"INCLINATION":87.9243,"RA_OF_ASC_NODE":358.6782,"ARG_OF_PERICENTER":91.2357,"MEAN_ANOMALY":268.9027,"EPHEMERIS_TYPE":0,"CLASSIFICATION_TYPE":"U","NORAD_CAT_ID":49209,"ELEMENT_SET_NO":999,"REV_AT_EPOCH":21462,"BSTAR":-0.0002555628,"MEAN_MOTION_DOT":-8.8e-7,"MEAN_MOTION_DDOT":0},{"OBJECT_NAME":"ONEWEB-0344","OBJECT_ID":"2021-083AA","EPOCH":"2026-02-20T04:29:37.637088","MEAN_MOTION":13.13468336,"ECCENTRICITY":0.00021547,"INCLINATION":87.9029,"RA_OF_ASC_NODE":343.517,"ARG_OF_PERICENTER":80.7368,"MEAN_ANOMALY":279.4005,"EPHEMERIS_TYPE":0,"CLASSIFICATION_TYPE":"U","NORAD_CAT_ID":49210,"ELEMENT_SET_NO":999,"REV_AT_EPOCH":21553,"BSTAR":0.00080902139,"MEAN_MOTION_DOT":3.08e-6,"MEAN_MOTION_DDOT":0},{"OBJECT_NAME":"ONEWEB-0345","OBJECT_ID":"2021-083AB","EPOCH":"2026-02-20T06:07:08.385888","MEAN_MOTION":13.13471403,"ECCENTRICITY":0.00021534,"INCLINATION":87.9039,"RA_OF_ASC_NODE":343.4695,"ARG_OF_PERICENTER":82.4255,"MEAN_ANOMALY":277.7119,"EPHEMERIS_TYPE":0,"CLASSIFICATION_TYPE":"U","NORAD_CAT_ID":49211,"ELEMENT_SET_NO":999,"REV_AT_EPOCH":21555,"BSTAR":0.0010807826,"MEAN_MOTION_DOT":4.07e-6,"MEAN_MOTION_DDOT":0},{"OBJECT_NAME":"ONEWEB-0346","OBJECT_ID":"2021-083AC","EPOCH":"2026-02-20T05:16:47.177472","MEAN_MOTION":13.18686354,"ECCENTRICITY":0.00020872,"INCLINATION":87.923,"RA_OF_ASC_NODE":358.6884,"ARG_OF_PERICENTER":60.4857,"MEAN_ANOMALY":299.6483,"EPHEMERIS_TYPE":0,"CLASSIFICATION_TYPE":"U","NORAD_CAT_ID":49212,"ELEMENT_SET_NO":999,"REV_AT_EPOCH":21456,"BSTAR":-1.785882e-6,"MEAN_MOTION_DOT":1.2e-7,"MEAN_MOTION_DDOT":0},{"OBJECT_NAME":"ONEWEB-0348","OBJECT_ID":"2021-083AD","EPOCH":"2026-02-20T05:18:48.498624","MEAN_MOTION":13.2077132,"ECCENTRICITY":0.00020551,"INCLINATION":87.9202,"RA_OF_ASC_NODE":297.7891,"ARG_OF_PERICENTER":70.4115,"MEAN_ANOMALY":289.724,"EPHEMERIS_TYPE":0,"CLASSIFICATION_TYPE":"U","NORAD_CAT_ID":49213,"ELEMENT_SET_NO":999,"REV_AT_EPOCH":22137,"BSTAR":0.00012297455,"MEAN_MOTION_DOT":6.3e-7,"MEAN_MOTION_DDOT":0},{"OBJECT_NAME":"ONEWEB-0350","OBJECT_ID":"2021-083AE","EPOCH":"2026-02-20T04:30:50.589792","MEAN_MOTION":13.13468701,"ECCENTRICITY":0.00021257,"INCLINATION":87.9043,"RA_OF_ASC_NODE":343.4817,"ARG_OF_PERICENTER":77.8718,"MEAN_ANOMALY":282.2649,"EPHEMERIS_TYPE":0,"CLASSIFICATION_TYPE":"U","NORAD_CAT_ID":49214,"ELEMENT_SET_NO":999,"REV_AT_EPOCH":21557,"BSTAR":0.001021609,"MEAN_MOTION_DOT":3.86e-6,"MEAN_MOTION_DDOT":0},{"OBJECT_NAME":"ONEWEB-0351","OBJECT_ID":"2021-083AF","EPOCH":"2026-02-20T05:09:32.065344","MEAN_MOTION":13.20772111,"ECCENTRICITY":0.00018507,"INCLINATION":87.9203,"RA_OF_ASC_NODE":297.7882,"ARG_OF_PERICENTER":109.7077,"MEAN_ANOMALY":250.4256,"EPHEMERIS_TYPE":0,"CLASSIFICATION_TYPE":"U","NORAD_CAT_ID":49215,"ELEMENT_SET_NO":999,"REV_AT_EPOCH":22133,"BSTAR":0.0001245191,"MEAN_MOTION_DOT":6.4e-7,"MEAN_MOTION_DDOT":0}]
